CCSDS_OMM_VERS = 2.0
CREATION_DATE  = 
ORIGINATOR     = 

OBJECT_NAME    = STARLINK-35439
OBJECT_ID      = 2025-259K
CENTER_NAME    = EARTH
REF_FRAME      = TEME
TIME_SYSTEM    = UTC
MEAN_ELEMENT_THEORY = SGP/SGP4

EPOCH          = 2025-11-23T12:00:02.000160
MEAN_MOTION    = 15.77118806
ECCENTRICITY   = .000126
INCLINATION    = 42.9986
RA_OF_ASC_NODE = 161.0853
ARG_OF_PERICENTER = 262.8433
MEAN_ANOMALY   = 331.3830

EPHEMERIS_TYPE = 0
CLASSIFICATION_TYPE = U
NORAD_CAT_ID   = 66431
ELEMENT_SET_NO = 999
REV_AT_EPOCH   = 318
BSTAR          = -.1016E-1
MEAN_MOTION_DOT = -.1504905E-1
MEAN_MOTION_DDOT = 0

CCSDS_OMM_VERS = 2.0
CREATION_DATE  = 
ORIGINATOR     = 

OBJECT_NAME    = STARLINK-35446
OBJECT_ID      = 2025-259L
CENTER_NAME    = EARTH
REF_FRAME      = TEME
TIME_SYSTEM    = UTC
MEAN_ELEMENT_THEORY = SGP/SGP4

EPOCH          = 2025-11-23T12:00:02.000160
MEAN_MOTION    = 15.77050105
ECCENTRICITY   = .0001407
INCLINATION    = 42.9984
RA_OF_ASC_NODE = 161.0794
ARG_OF_PERICENTER = 255.6528
MEAN_ANOMALY   = 340.6822

EPHEMERIS_TYPE = 0
CLASSIFICATION_TYPE = U
NORAD_CAT_ID   = 66432
ELEMENT_SET_NO = 999
REV_AT_EPOCH   = 318
BSTAR          = -.10552E-1
MEAN_MOTION_DOT = -.1551479E-1
MEAN_MOTION_DDOT = 0

CCSDS_OMM_VERS = 2.0
CREATION_DATE  = 
ORIGINATOR     = 

OBJECT_NAME    = STARLINK-35457
OBJECT_ID      = 2025-259M
CENTER_NAME    = EARTH
REF_FRAME      = TEME
TIME_SYSTEM    = UTC
MEAN_ELEMENT_THEORY = SGP/SGP4

EPOCH          = 2025-11-23T12:00:02.000160
MEAN_MOTION    = 15.77001917
ECCENTRICITY   = .0001509
INCLINATION    = 42.9981
RA_OF_ASC_NODE = 161.0757
ARG_OF_PERICENTER = 254.9877
MEAN_ANOMALY   = 343.4230

EPHEMERIS_TYPE = 0
CLASSIFICATION_TYPE = U
NORAD_CAT_ID   = 66433
ELEMENT_SET_NO = 999
REV_AT_EPOCH   = 318
BSTAR          = -.10729E-1
MEAN_MOTION_DOT = -.1571265E-1
MEAN_MOTION_DDOT = 0

CCSDS_OMM_VERS = 2.0
CREATION_DATE  = 
ORIGINATOR     = 

OBJECT_NAME    = STARLINK-35389
OBJECT_ID      = 2025-259N
CENTER_NAME    = EARTH
REF_FRAME      = TEME
TIME_SYSTEM    = UTC
MEAN_ELEMENT_THEORY = SGP/SGP4

EPOCH          = 2025-11-23T12:00:02.000160
MEAN_MOTION    = 15.76921310
ECCENTRICITY   = .0001679
INCLINATION    = 42.9987
RA_OF_ASC_NODE = 161.0707
ARG_OF_PERICENTER = 267.6820
MEAN_ANOMALY   = 332.7919

EPHEMERIS_TYPE = 0
CLASSIFICATION_TYPE = U
NORAD_CAT_ID   = 66434
ELEMENT_SET_NO = 999
REV_AT_EPOCH   = 318
BSTAR          = -.10489E-1
MEAN_MOTION_DOT = -.1535785E-1
MEAN_MOTION_DDOT = 0

CCSDS_OMM_VERS = 2.0
CREATION_DATE  = 
ORIGINATOR     = 

OBJECT_NAME    = STARLINK-35502
OBJECT_ID      = 2025-259P
CENTER_NAME    = EARTH
REF_FRAME      = TEME
TIME_SYSTEM    = UTC
MEAN_ELEMENT_THEORY = SGP/SGP4

EPOCH          = 2025-11-23T12:00:02.000160
MEAN_MOTION    = 15.76892249
ECCENTRICITY   = .0001765
INCLINATION    = 42.9987
RA_OF_ASC_NODE = 161.0663
ARG_OF_PERICENTER = 259.7782
MEAN_ANOMALY   = 342.6687

EPHEMERIS_TYPE = 0
CLASSIFICATION_TYPE = U
NORAD_CAT_ID   = 66435
ELEMENT_SET_NO = 999
REV_AT_EPOCH   = 318
BSTAR          = -.10686E-1
MEAN_MOTION_DOT = -.1559202E-1
MEAN_MOTION_DDOT = 0

CCSDS_OMM_VERS = 2.0
CREATION_DATE  = 
ORIGINATOR     = 

OBJECT_NAME    = STARLINK-35501
OBJECT_ID      = 2025-259Q
CENTER_NAME    = EARTH
REF_FRAME      = TEME
TIME_SYSTEM    = UTC
MEAN_ELEMENT_THEORY = SGP/SGP4

EPOCH          = 2025-11-23T12:00:02.000160
MEAN_MOTION    = 15.76803369
ECCENTRICITY   = .0001363
INCLINATION    = 42.9988
RA_OF_ASC_NODE = 161.0554
ARG_OF_PERICENTER = 254.5989
MEAN_ANOMALY   = 351.8582

EPHEMERIS_TYPE = 0
CLASSIFICATION_TYPE = U
NORAD_CAT_ID   = 66436
ELEMENT_SET_NO = 999
REV_AT_EPOCH   = 318
BSTAR          = -.11118E-1
MEAN_MOTION_DOT = -.1640165E-1
MEAN_MOTION_DDOT = 0

CCSDS_OMM_VERS = 2.0
CREATION_DATE  = 
ORIGINATOR     = 

OBJECT_NAME    = STARLINK-35474
OBJECT_ID      = 2025-259R
CENTER_NAME    = EARTH
REF_FRAME      = TEME
TIME_SYSTEM    = UTC
MEAN_ELEMENT_THEORY = SGP/SGP4

EPOCH          = 2025-11-23T12:00:02.000160
MEAN_MOTION    = 15.76734022
ECCENTRICITY   = .0001298
INCLINATION    = 42.9988
RA_OF_ASC_NODE = 161.0504
ARG_OF_PERICENTER = 256.8945
MEAN_ANOMALY   = 351.6026

EPHEMERIS_TYPE = 0
CLASSIFICATION_TYPE = U
NORAD_CAT_ID   = 66437
ELEMENT_SET_NO = 999
REV_AT_EPOCH   = 318
BSTAR          = -.11215E-1
MEAN_MOTION_DOT = -.1648174E-1
MEAN_MOTION_DDOT = 0

CCSDS_OMM_VERS = 2.0
CREATION_DATE  = 
ORIGINATOR     = 

OBJECT_NAME    = STARLINK-34681
OBJECT_ID      = 2025-259S
CENTER_NAME    = EARTH
REF_FRAME      = TEME
TIME_SYSTEM    = UTC
MEAN_ELEMENT_THEORY = SGP/SGP4

EPOCH          = 2025-11-23T12:00:02.000160
MEAN_MOTION    = 15.76691582
ECCENTRICITY   = .0001589
INCLINATION    = 42.9988
RA_OF_ASC_NODE = 161.0450
ARG_OF_PERICENTER = 254.2948
MEAN_ANOMALY   = 356.2040

EPHEMERIS_TYPE = 0
CLASSIFICATION_TYPE = U
NORAD_CAT_ID   = 66438
ELEMENT_SET_NO = 999
REV_AT_EPOCH   = 307
BSTAR          = -.11427E-1
MEAN_MOTION_DOT = -.1673227E-1
MEAN_MOTION_DDOT = 0

CCSDS_OMM_VERS = 2.0
CREATION_DATE  = 
ORIGINATOR     = 

OBJECT_NAME    = STARLINK-35327
OBJECT_ID      = 2025-259T
CENTER_NAME    = EARTH
REF_FRAME      = TEME
TIME_SYSTEM    = UTC
MEAN_ELEMENT_THEORY = SGP/SGP4

EPOCH          = 2025-11-23T12:00:02.000160
MEAN_MOTION    = 15.76872844
ECCENTRICITY   = .0001656
INCLINATION    = 42.9991
RA_OF_ASC_NODE = 161.0623
ARG_OF_PERICENTER = 259.5852
MEAN_ANOMALY   = 344.8181

EPHEMERIS_TYPE = 0
CLASSIFICATION_TYPE = U
NORAD_CAT_ID   = 66439
ELEMENT_SET_NO = 999
REV_AT_EPOCH   = 318
BSTAR          = -.10791E-1
MEAN_MOTION_DOT = -.1571297E-1
MEAN_MOTION_DDOT = 0

CCSDS_OMM_VERS = 2.0
CREATION_DATE  = 
ORIGINATOR     = 

OBJECT_NAME    = STARLINK-35405
OBJECT_ID      = 2025-259U
CENTER_NAME    = EARTH
REF_FRAME      = TEME
TIME_SYSTEM    = UTC
MEAN_ELEMENT_THEORY = SGP/SGP4

EPOCH          = 2025-11-23T12:00:02.000160
MEAN_MOTION    = 15.76638284
ECCENTRICITY   = .0001605
INCLINATION    = 42.9989
RA_OF_ASC_NODE = 161.0408
ARG_OF_PERICENTER = 252.5710
MEAN_ANOMALY   = 359.9171

EPHEMERIS_TYPE = 0
CLASSIFICATION_TYPE = U
NORAD_CAT_ID   = 66440
ELEMENT_SET_NO = 999
REV_AT_EPOCH   = 318
BSTAR          = -.1131E-1
MEAN_MOTION_DOT = -.1654478E-1
MEAN_MOTION_DDOT = 0

CCSDS_OMM_VERS = 2.0
CREATION_DATE  = 
ORIGINATOR     = 

OBJECT_NAME    = STARLINK-35426
OBJECT_ID      = 2025-259V
CENTER_NAME    = EARTH
REF_FRAME      = TEME
TIME_SYSTEM    = UTC
MEAN_ELEMENT_THEORY = SGP/SGP4

EPOCH          = 2025-11-23T12:00:02.000160
MEAN_MOTION    = 15.76555273
ECCENTRICITY   = .0001551
INCLINATION    = 42.9985
RA_OF_ASC_NODE = 161.0345
ARG_OF_PERICENTER = 255.9441
MEAN_ANOMALY   = 358.5732

EPHEMERIS_TYPE = 0
CLASSIFICATION_TYPE = U
NORAD_CAT_ID   = 66441
ELEMENT_SET_NO = 999
REV_AT_EPOCH   = 318
BSTAR          = -.11168E-1
MEAN_MOTION_DOT = -.1630599E-1
MEAN_MOTION_DDOT = 0

CCSDS_OMM_VERS = 2.0
CREATION_DATE  = 
ORIGINATOR     = 

OBJECT_NAME    = STARLINK-34724
OBJECT_ID      = 2025-259W
CENTER_NAME    = EARTH
REF_FRAME      = TEME
TIME_SYSTEM    = UTC
MEAN_ELEMENT_THEORY = SGP/SGP4

EPOCH          = 2025-11-23T12:00:02.000160
MEAN_MOTION    = 15.76468912
ECCENTRICITY   = .0001259
INCLINATION    = 42.9990
RA_OF_ASC_NODE = 161.0304
ARG_OF_PERICENTER = 263.0376
MEAN_ANOMALY   = 353.4988

EPHEMERIS_TYPE = 0
CLASSIFICATION_TYPE = U
NORAD_CAT_ID   = 66442
ELEMENT_SET_NO = 999
REV_AT_EPOCH   = 318
BSTAR          = -.10827E-1
MEAN_MOTION_DOT = -.1550744E-1
MEAN_MOTION_DDOT = 0

