STARLINK-35439          
1 66431U 25259K   25327.50002315 -.01504905  00000+0 -10160-1 0  9992
2 66431  42.9986 161.0853 0001260 262.8433 331.3830 15.77118806  3188
STARLINK-35446          
1 66432U 25259L   25327.50002315 -.01551479  00000+0 -10552-1 0  9996
2 66432  42.9984 161.0794 0001407 255.6528 340.6822 15.77050105  3180
STARLINK-35457          
1 66433U 25259M   25327.50002315 -.01571265  00000+0 -10729-1 0  9998
2 66433  42.9981 161.0757 0001509 254.9877 343.4230 15.77001917  3180
STARLINK-35389          
1 66434U 25259N   25327.50002315 -.01535785  00000+0 -10489-1 0  9999
2 66434  42.9987 161.0707 0001679 267.6820 332.7919 15.76921310  3181
STARLINK-35502          
1 66435U 25259P   25327.50002315 -.01559202  00000+0 -10686-1 0  9999
2 66435  42.9987 161.0663 0001765 259.7782 342.6687 15.76892249  3188
STARLINK-35501          
1 66436U 25259Q   25327.50002315 -.01640165  00000+0 -11118-1 0  9990
2 66436  42.9988 161.0554 0001363 254.5989 351.8582 15.76803369  3186
STARLINK-35474          
1 66437U 25259R   25327.50002315 -.01648174  00000+0 -11215-1 0  9997
2 66437  42.9988 161.0504 0001298 256.8945 351.6026 15.76734022  3186
STARLINK-34681          
1 66438U 25259S   25327.50002315 -.01673227  00000+0 -11427-1 0  9990
2 66438  42.9988 161.0450 0001589 254.2948 356.2040 15.76691582  3073
STARLINK-35327          
1 66439U 25259T   25327.50002315 -.01571297  00000+0 -10791-1 0  9998
2 66439  42.9991 161.0623 0001656 259.5852 344.8181 15.76872844  3180
STARLINK-35405          
1 66440U 25259U   25327.50002315 -.01654478  00000+0 -11310-1 0  9991
2 66440  42.9989 161.0408 0001605 252.5710 359.9171 15.76638284  3184
STARLINK-35426          
1 66441U 25259V   25327.50002315 -.01630599  00000+0 -11168-1 0  9991
2 66441  42.9985 161.0345 0001551 255.9441 358.5732 15.76555273  3183
STARLINK-34724          
1 66442U 25259W   25327.50002315 -.01550744  00000+0 -10827-1 0  9996
2 66442  42.9990 161.0304 0001259 263.0376 353.4988 15.76468912  3187
